{"fetched_at":"2026-03-29T02:12:04Z","count":15717,"tles":[{"name":"STARLINK-34851","line1":"1 66447U 25259AB  26087.50290283  .00032943  00000+0  11997-2 0  9991","line2":"2 66447  43.0000 168.5142 0001658 115.8060 244.2963 15.27623264 22253","category":"Starlink"}]}